#cP2015  4 10  0  0  0.00000000      96   u+U IGb08 FIT  WHU
## 1839 432000.00000000   900.00000000 57122     0.000000000
+   73   G01G02G03G04G05G06G07G08G09G10G11G12G13G14G15G16G17
+        G18G19G20G21G22G23G24G25G27G28G29G30G31G32R01R02R03
+        R04R05R06R07R08R09R10R11R12R13R14R15R16R17R18R19R20
+        R21R22R23R24E11E12E14E18E19C01C02C03C04C05C06C07C08
+        C09C10C11C12C14  0  0  0  0  0  0  0  0  0  0  0  0
+          0  0  0  0  0  0  0  0  0  0  0  0  0  0  0  0  0
+          0  0  0  0  0  0  0  0  0  0  0  0  0  0  0  0  0
+          0  0  0  0  0  0  0  0  0  0  0  0  0  0  0  0  0
+          0  0  0  0  0  0  0  0  0  0  0  0  0  0  0  0  0
+          0  0  0  0  0  0  0  0  0  0  0  0  0  0  0  0  0
++         2  2  3  2  3  3  3  2  3  4  2  3  2  2  2  3  3
++         3  3  4  2  3  2  3  6  3  3  3  3  3  5  5  4  3
++         4  4  3  4  4  3  2  3  3  3  2  3  3  3  3  3  2
++         3  3  3  3  6  6  6  5  6 10  7  8 11  8  5  4  4
++         4  4  4  4  6  0  0  0  0  0  0  0  0  0  0  0  0
++         0  0  0  0  0  0  0  0  0  0  0  0  0  0  0  0  0
++         0  0  0  0  0  0  0  0  0  0  0  0  0  0  0  0  0
++         0  0  0  0  0  0  0  0  0  0  0  0  0  0  0  0  0
++         0  0  0  0  0  0  0  0  0  0  0  0  0  0  0  0  0
++         0  0  0  0  0  0  0  0  0  0  0  0  0  0  0  0  0
%c M  cc GPS ccc cccc cccc cccc cccc ccccc ccccc ccccc ccccc
%c cc cc ccc ccc cccc cccc cccc cccc ccccc ccccc ccccc ccccc
%f  1.2500000  1.025000000  0.00000000000  0.000000000000000
%f  0.0000000  0.000000000  0.00000000000  0.000000000000000
%i    0    0    0    0      0      0      0      0         0
%i    0    0    0    0      0      0      0      0         0
/* GNSS RESEARCH CENTER, WUHAN UNIVERSITY (WHU), P. R. CHINA
/* POSITION AND NAVIGATION DATA ANALYST (PANDA) SOFTWARE    
/* PCV:IGS08_1837 OL/AL:FES2004  NONE     NN ORB:CoM CLK:CoN
/*
*  2015  4 10  7 30  0.00000000
PG01  14054.299353  13285.771229 -18332.080585     -6.967349
PG02   9498.579762 -14743.718895  20184.831323    558.853888
PG03  13682.152196  22668.164931   1805.154857    290.711157
PG04   3679.136801  15723.684919 -21433.193910    -10.998657
PG05    196.236009 -21890.429523  14865.841795   -255.738718
PG06  23184.272952  -6992.355407  10900.747477    131.870456
PG07  24486.175689   6992.219918   8281.573707    454.213910
PG08 -13195.529776  11159.271774  20173.315609     19.358498
PG09  13966.462219   6365.945054  21667.015197   -133.781251
PG10  15007.465503  -4464.781449  21101.517149   -170.367962
PG11   8125.400772  15045.443621 -20863.809367   -570.358863
PG12 -10904.571551 -24332.788924  -1138.800921    283.599626
PG13  11825.604583 -22856.742930  -6973.155702   -104.336845
PG14 -19664.818541  11999.889245 -12847.862919     71.990139
PG15   -649.153967 -21795.768299 -15033.156357   -242.717890
PG16  -1306.020243  21359.354184  15407.258766   -140.080688
PG17  19205.609357 -10991.248120 -14240.708252   -165.596046
PG18 -18917.148067  -8967.014797 -16031.023137    392.809075
PG19  -4839.903369  22087.879613 -13728.016974   -506.865431
PG20   8868.436600 -14439.692629  20282.930900    308.743027
PG21 -25868.438541  -4609.815472   5755.254520   -435.112470
PG22 -15759.929124   4043.059123 -20785.007486    338.065555
PG23   6949.722623  16009.205829  20038.361624   -100.918091
PG24 -11059.501843 -14112.450780 -19676.759210    -46.391207
PG25 -17330.731239 -17267.801267  10455.338032    -18.419177
PG27 -11796.766448  23517.650094  -3188.785324     63.943674
PG28  15897.192198   2329.202896 -20552.621230    431.936743
PG29 -11284.907732  -9944.579812  21922.741951    603.421863
PG30  26447.418670    883.390510  -2632.436140    -72.806861
PG31 -21498.740359   8040.473657  13787.981020    318.968518
PG32   2217.326202  24447.286084 -10817.698800   -179.761418
PR01  -6163.543401  16591.371874 -18374.812604   -154.651483
PR02   2822.432303  25160.752602  -2922.115536    127.421122
PR03   9945.226961  18734.916663  14184.798028     39.157295
PR04  11222.888496   1048.841803  22894.844617    116.675518
PR05   6016.501870 -16834.680748  18183.603005      4.994684
PR06  -3276.804092 -25219.468484   2175.466006     65.673566
PR07  -9944.559851 -18673.726081 -14236.041911   -118.543282
PR08 -11247.409732  -1517.068600 -22793.188353    -26.557379
PR09  -6118.306376 -12921.094132 -21180.211673     -0.323894
PR10 -20389.607233 -12278.066690  -9105.193980     12.602162
PR11 -23567.475165  -4619.452565   8720.966214      4.492527
PR12 -12295.862733   5993.684141  21461.938403      0.799490
PR13   6367.260482  12732.584903  21142.700985   -478.957696
PR14  21045.067388  12003.380179   8061.864428    153.553749
PR15  23500.277347   5016.883774  -8392.043071     42.796334
PR16  11707.810044  -6403.666660 -21793.392797     -3.576734
PR17   9073.122851   6393.518762 -22931.809548    155.469876
PR18  19726.089673  -7154.116978 -14537.533694     45.311541
PR19  18626.190604 -16961.695988   4021.780704   -122.773517
PR20   6094.123539 -15933.953441  19000.386378   -167.990911
PR21  -8989.184025  -6594.689054  22951.327929      6.607718
PR22 -19582.540474   7017.911570  14670.252161    158.860006
PR23 -18760.851023  16999.132852  -3104.085962     18.390466
PR24  -7474.631573  16676.884370 -17805.333106   -123.180144
PE11 -25723.916167  12586.700512   7465.963159     54.517630
PE12 -20886.555461  -2531.507620  20831.093973   -608.525198
PE14  25090.382343  -8470.936143 -18329.453538    255.812371
PE18 -18079.140036   2523.205740  15371.854818   3104.371112
PE19  -6257.752003 -28619.502980  -4292.680650     -2.951635
PC01 -32293.168394  27089.305768   1161.817038    -32.155096
PC02   7285.412460  41524.309940     38.321373   -485.377840
PC03 -14822.622846  39467.407205    589.547485     25.788776
PC04 -39608.510731  14451.106618    558.280918   -114.284211
PC05  21864.442100  36050.292066   -215.613902    -31.063048
PC06  -7850.789113  32605.276867 -25321.440482   -579.900868
PC07 -17507.049244  20719.836461  32279.065771    -55.198039
PC08 -24232.633011  34122.369021  -5881.999191   -782.638634
PC09   3538.563347  40167.982287 -11793.636335    889.542260
PC10  -1191.128833  24806.764298  34124.794754    859.760630
PC11  20770.183135  -5914.873143 -17582.528175   -569.193978
PC12  10077.100116  12350.198596 -22884.198188    437.010853
PC14  17499.486498   3908.771811  21395.014527    205.724434
EOF
